[{"OBJECT_NAME":"PUNCH-WFI 1 (SMEX 15B)","OBJECT_ID":"2025-047B","EPOCH":"2026-03-09T11:45:25.991424","MEAN_MOTION":14.74225366,"ECCENTRICITY":0.0009999,"INCLINATION":97.9576,"RA_OF_ASC_NODE":255.6057,"ARG_OF_PERICENTER":132.8335,"MEAN_ANOMALY":227.3715,"EPHEMERIS_TYPE":0,"CLASSIFICATION_TYPE":"U","NORAD_CAT_ID":63179,"ELEMENT_SET_NO":999,"REV_AT_EPOCH":5337,"BSTAR":0.00015602986,"MEAN_MOTION_DOT":9.82e-6,"MEAN_MOTION_DDOT":0},{"OBJECT_NAME":"KINEIS-4E","OBJECT_ID":"2025-056A","EPOCH":"2026-03-08T11:06:43.945632","MEAN_MOTION":14.72360351,"ECCENTRICITY":8.464e-5,"INCLINATION":97.9937,"RA_OF_ASC_NODE":193.7908,"ARG_OF_PERICENTER":180.4919,"MEAN_ANOMALY":179.6288,"EPHEMERIS_TYPE":0,"CLASSIFICATION_TYPE":"U","NORAD_CAT_ID":63300,"ELEMENT_SET_NO":999,"REV_AT_EPOCH":5230,"BSTAR":0.00050056245,"MEAN_MOTION_DOT":3.119e-5,"MEAN_MOTION_DDOT":0}]
